{"type":"FeatureCollection","features":[{"type":"Feature","geometry":{"bbox":[-6.919471160727516,37.18919891622386,-6.037525948600254,37.3102963634039],"type":"LineString","coordinates":[[-6.919522298225182,37.19018678316731],[-6.918719885302719,37.189223806142714],[-6.916934433724259,37.19015772839896],[-6.916857994934576,37.19048551216466],[-6.915579231932135,37.19116695504067],[-6.915342529721405,37.19128760721128],[-6.914980426584603,37.19126161590348],[-6.914621317714143,37.191213978151055],[-6.914112430951259,37.19114918156084],[-6.911041366747756,37.19122971530988],[-6.909872536709891,37.19125586601831],[-6.909124340107322,37.19152712043577],[-6.908250826227692,37.19201729217173],[-6.908038649501807,37.192144345768575],[-6.907819364997413,37.192118847470915],[-6.906747302065119,37.191404693319264],[-6.906529318344139,37.19141189229275],[-6.906331463275452,37.19144121184111],[-6.905360476578448,37.19212646204842],[-6.904062610716375,37.19269390472636],[-6.901929477973833,37.19369673707609],[-6.900642979471184,37.1943556145284],[-6.90006765094893,37.194490476113174],[-6.899134204546922,37.194739547925884],[-6.898456872517592,37.19476193045034],[-6.897922118692181,37.195033526853415],[-6.895632249873642,37.19561523067777],[-6.892155405602558,37.19650328895665],[-6.887621820141184,37.20054908189761],[-6.887427046860335,37.20063903125564],[-6.885496594231072,37.20058093604336],[-6.883478496896249,37.20048011502877],[-6.88116694290816,37.200396483885044],[-6.880957480166601,37.20057045280728],[-6.880813980763708,37.20073466190701],[-6.880616865331537,37.20077910536045],[-6.880423008737921,37.20070191706107],[-6.879758613158799,37.200336351803095],[-6.8781577801781815,37.19935902754565],[-6.870598627756921,37.19867542256519],[-6.861959713799358,37.19793340014429],[-6.8607659380584005,37.19773067358394],[-6.859840555051118,37.19777516140441],[-6.858123348731492,37.197622291521],[-6.8510276731007025,37.197925684464174],[-6.850101653643277,37.19782670703218],[-6.849150829603078,37.19798677163831],[-6.841172905116939,37.19831446121074],[-6.839786365649143,37.197934135834245],[-6.837562744121452,37.1982721332307],[-6.836843223836934,37.19850054901094],[-6.833270698444335,37.19863915843943],[-6.827299662139291,37.198475517100434],[-6.820920336237833,37.19849945600779],[-6.815000501977119,37.19840949087355],[-6.810004747537556,37.198380614160726],[-6.79440349912797,37.19835798091451],[-6.785085052755647,37.19828839479494],[-6.76390615232389,37.197909703097714],[-6.752158751468613,37.20675416243519],[-6.748039061716913,37.20985464452556],[-6.745285890738041,37.211729720825886],[-6.713321440643693,37.21626845796705],[-6.676246062913998,37.21755151711994],[-6.650969388293496,37.21989832115307],[-6.640734185225751,37.22187393100455],[-6.627295633866068,37.22445811309009],[-6.618728332046087,37.22605740958173],[-6.594410644648356,37.22544536486949],[-6.5850692843049,37.227371050440475],[-6.581389012750559,37.22828771313636],[-6.579262165743505,37.22873732789338],[-6.5781889880058415,37.2289162806004],[-6.5759080491734005,37.22917906277287],[-6.573774898312984,37.22916053864487],[-6.568147542910271,37.23031344925656],[-6.557950345290342,37.23266705661259],[-6.557011326099788,37.23288210008972],[-6.556839855014974,37.23287206470182],[-6.556730508359567,37.23276900881383],[-6.556598264653115,37.23258308522989],[-6.520413127566059,37.23578841118232],[-6.51507009001376,37.23628187452403],[-6.512348452116041,37.23649186147446],[-6.512200515917057,37.23647726424395],[-6.511508788987698,37.236311698324016],[-6.51136559693378,37.23629695918556],[-6.511229614453179,37.23633517858942],[-6.511040229630522,37.23645094416336],[-6.510910575447669,37.23652315783358],[-6.510776176330977,37.23652659182724],[-6.5088003172083715,37.236600971858905],[-6.5083964028994385,37.23670030898803],[-6.500152759293481,37.23717243324908],[-6.499204520531964,37.23721188475834],[-6.498679534674762,37.237261597821096],[-6.498297916129549,37.237329856644855],[-6.491559976104106,37.23800751119577],[-6.490722243961925,37.23797146912063],[-6.4860225090132095,37.238451906898355],[-6.485166098495942,37.238629068415264],[-6.436777173633928,37.24341347258546],[-6.426122080800819,37.24503351721807],[-6.42406888224439,37.24688560952613],[-6.410556470547774,37.24940299857808],[-6.40071532531621,37.25011177146362],[-6.400542793832075,37.25007875059202],[-6.400416007152037,37.250006432591285],[-6.399598840140473,37.24895124460923],[-6.399481887603238,37.24888623920025],[-6.39939545286102,37.24886593454571],[-6.386786758625521,37.25023884438766],[-6.373045410634486,37.25180153508697],[-6.363008675249443,37.25407280207137],[-6.3423117974049035,37.25869701519063],[-6.33263183001249,37.260946188262885],[-6.326749807878381,37.26371263305663],[-6.305021864469723,37.272610835792975],[-6.278131908960513,37.27231205457581],[-6.270915355818576,37.27354660006983],[-6.265411249592702,37.27464069255355],[-6.259706263973647,37.27570968224851],[-6.259554346505934,37.27571386983624],[-6.259348732578219,37.27557520179235],[-6.258919172248292,37.27531356300654],[-6.258775113145432,37.27527954998583],[-6.256298930379749,37.27539334115179],[-6.2523259189433915,37.27630067246394],[-6.237081719737892,37.27848482187438],[-6.236973661050175,37.27851436813885],[-6.236869017524335,37.27862358560341],[-6.236775820666652,37.2787780695366],[-6.236670526011971,37.27887211136572],[-6.236562629209486,37.27890545115844],[-6.222594673614732,37.28067194799096],[-6.197733956305036,37.27556711266467],[-6.179639228407005,37.27749839837146],[-6.157234248433912,37.28846072102713],[-6.1369354820320305,37.2885480249326],[-6.125419323961026,37.288602926193974],[-6.124552874383934,37.288751444533986],[-6.124037917249029,37.288829623710825],[-6.1239003569305215,37.28883705629566],[-6.12378084999636,37.288821221227046],[-6.122536724761481,37.288626174917695],[-6.1202645671315725,37.28863297459549],[-6.097109012053101,37.29192645645264],[-6.091376246561955,37.29274956170986],[-6.083234558399019,37.294208029750585],[-6.0831039003321346,37.29426841355595],[-6.083041903678072,37.294380185544696],[-6.082878275920225,37.295030190996776],[-6.082810598974363,37.29511932017162],[-6.082683758556634,37.29515681321205],[-6.0816045464748685,37.295158354473706],[-6.080533387268319,37.295357196413455],[-6.079011737440554,37.29581845905902],[-6.073562630955848,37.29774730952041],[-6.072895171882807,37.29798316716526],[-6.071000505252351,37.2985109987767],[-6.070510893609577,37.2987478241532],[-6.069963664274458,37.29897094961483],[-6.068969369850885,37.29930823597654],[-6.068802235538862,37.299407535799105],[-6.068164903957066,37.299636790025644],[-6.0679140899191655,37.299666088865536],[-6.064116350676885,37.30098767626737],[-6.063546105217632,37.30123036140769],[-6.063012161627096,37.301504236561584],[-6.058884884113923,37.30424548612569],[-6.05871159040132,37.30431074502893],[-6.0582856157983,37.30435974886278],[-6.055833071261823,37.304973941339185],[-6.052869462802083,37.305768413991125],[-6.04397302126534,37.308257894106255],[-6.042639125015189,37.31008511940551],[-6.042547021501228,37.31015966107693],[-6.042409560774765,37.310170795399976],[-6.0391773809558815,37.309619574584175],[-6.0389432276549035,37.30959140681693],[-6.037834845189361,37.309346398529726],[-6.037809564352,37.3093090630669],[-6.03748224891173,37.30921111445632]]},"properties":{"id_dera":11010900000021,"codigo":2,"nombre":"Huelva-Coria-Sevilla"}},{"type":"Feature","geometry":{"bbox":[-6.034658340572108,37.23611556864249,-5.590461974889751,37.320054668434274],"type":"LineString","coordinates":[[-6.037599470673511,37.30928787142689],[-6.036651850691415,37.30901972894869],[-6.036513779715712,37.30901567803742],[-6.035296996498796,37.309267235131436],[-6.034207706757902,37.309496515473114],[-6.034046339828177,37.30950445504834],[-6.03392084085952,37.309458294931694],[-6.033112542526314,37.30910678001105],[-6.029749196860938,37.308602346259924],[-6.028866980448256,37.3079488149128],[-6.027878312350045,37.3065383002796],[-6.016648726792581,37.30065273993574],[-6.016544856853003,37.30056978960816],[-6.016522693210164,37.30047362600735],[-6.01781523751876,37.29771900112758],[-6.018082651231776,37.297212669877226],[-6.01809447854829,37.29710438052791],[-6.0180375959353105,37.29703718836413],[-6.017935800300449,37.29698850635154],[-6.01767819300637,37.296907714663135],[-6.017580540719255,37.29684373248985],[-6.017541199644618,37.29675167252479],[-6.017576718197254,37.29662921326589],[-6.0178415507277965,37.296058373446925],[-6.0202030795657375,37.291029608849655],[-6.020241877371857,37.29092985624337],[-6.020221306808189,37.29083161991278],[-6.020099902232858,37.29058971551724],[-6.019905652360824,37.29013125592187],[-6.01457393854674,37.27787712397597],[-6.013109059757998,37.27449586388192],[-6.013061709800483,37.274401355093396],[-6.010551911969423,37.27183572421744],[-6.0104435399280165,37.27177010880761],[-6.010166656243071,37.27168029298793],[-6.009867876641722,37.27157773879745],[-6.0021812551506235,37.26889569120487],[-6.002062587875719,37.26883982555766],[-5.999350095044352,37.26588308885277],[-5.999241156474943,37.26583267136482],[-5.997236516874606,37.265319398367836],[-5.997172494676874,37.265322919901415],[-5.997060425139414,37.26537324154747],[-5.996399344251728,37.26632063743589],[-5.995397778429785,37.26779135782212],[-5.995308951205203,37.26788857129714],[-5.995245678897686,37.26791106564202],[-5.995172759843585,37.267930005671],[-5.995057676384532,37.26790443058747],[-5.994349441266462,37.26760328272686],[-5.977594077918238,37.26545652345243],[-5.977489695500335,37.26546105029963],[-5.976412519879594,37.26562490889946],[-5.976307987605734,37.26562563989771],[-5.976174351435598,37.26555113148755],[-5.969693036540722,37.25851380643681],[-5.959498701129294,37.25467629715928],[-5.958994792844105,37.25448947582119],[-5.957353507671694,37.25444314956358],[-5.948050576261509,37.25418152611024],[-5.947921802494421,37.25416954063237],[-5.941651800803419,37.25253076892064],[-5.94152109971422,37.25253022016346],[-5.935113365684411,37.252905891685],[-5.934975394993952,37.25290171742476],[-5.9297990257763304,37.252374760856064],[-5.929214817604989,37.25232085199],[-5.928955347093136,37.25230828305327],[-5.9288566066060016,37.252335418704206],[-5.928793545364683,37.25236357030192],[-5.928740420034651,37.252402871782586],[-5.928401929178499,37.252865187259815],[-5.928172670382543,37.25320324206046],[-5.928087487625811,37.25327372576118],[-5.9279539477084375,37.25332261445256],[-5.9266479191001915,37.253404313105115],[-5.925623850406313,37.25346572964094],[-5.9241186153965,37.2534345689451],[-5.92353072892215,37.25346999083821],[-5.923357465475278,37.253521713098024],[-5.922950492163848,37.253725207798034],[-5.922050660748356,37.254056938925665],[-5.921864798894396,37.25407810999667],[-5.921494860769093,37.253987763382106],[-5.921124710089358,37.253891894014124],[-5.921011843496543,37.25383388577143],[-5.920747520046098,37.253613812009604],[-5.920525069388523,37.25340375758095],[-5.920212610251138,37.25319039768212],[-5.920030671251465,37.25313409342666],[-5.9144598488899005,37.25282379006059],[-5.914350394501713,37.252854120615076],[-5.912893594617138,37.25362506810462],[-5.910113700070587,37.25522994365068],[-5.9085916093920225,37.25610331032345],[-5.908479171784044,37.25614614428501],[-5.908345984944862,37.25614389181371],[-5.890993148177144,37.25382499290882],[-5.876170033489593,37.251859829772876],[-5.873859355312988,37.251147967568365],[-5.872251723075557,37.25249054761411],[-5.867661038411852,37.252098039051354],[-5.8598097445788575,37.25199596807997],[-5.8541474290286075,37.25192077561773],[-5.84337786283396,37.251799741471004],[-5.842541967326573,37.25200221635164],[-5.831829824757488,37.25193441140175],[-5.8215029103941465,37.25381240755546],[-5.812975478579989,37.25306261125935],[-5.812844430982971,37.253071253943126],[-5.8085225904180255,37.25594293861604],[-5.808403027903875,37.255981702151],[-5.808271358970423,37.255973773691096],[-5.803423392018111,37.254270374416556],[-5.770924854750915,37.24981107832665],[-5.758720795796912,37.248166420731316],[-5.758539433399477,37.24816958432256],[-5.733418039281657,37.24855192439304],[-5.733298594621067,37.24859475494087],[-5.73290873249816,37.24885524199492],[-5.732581820220902,37.24908802043268],[-5.732492282726307,37.2491453589291],[-5.732384476859457,37.249175483880904],[-5.731853177127005,37.249157353063474],[-5.708889659621812,37.24818674832719],[-5.685262906141829,37.247197074383806],[-5.678892805900193,37.24693245545302],[-5.6737134918511325,37.24671244425473],[-5.656447849470933,37.24595255983758],[-5.644863935062906,37.24547066012139],[-5.637613063155574,37.246815170591724],[-5.635812853233447,37.24713717073917],[-5.631638793902283,37.248124956722755],[-5.631535935473744,37.24821067555101],[-5.631469347362798,37.24828400990997],[-5.631382417481513,37.24836885097945],[-5.627726589075817,37.249216574661986],[-5.6216292817495095,37.25302920927327],[-5.62147823789561,37.25306019176472],[-5.613338307867048,37.25401406179356],[-5.591978736981542,37.25115108703277],[-5.589341757947284,37.24958645239267],[-5.588551215975976,37.249114587646794],[-5.588465756031993,37.249041839312696],[-5.588149852413507,37.24870053285025],[-5.588006059368485,37.248419759348344]]},"properties":{"id_dera":11010900000022,"codigo":6,"nombre":"Coria-Arahal"}},{"type":"Feature","geometry":{"bbox":[-6.283242621122774,36.621903455689534,-5.588002606814093,37.248421412795636],"type":"LineString","coordinates":[[-5.588002606814093,37.248421412795636],[-5.594509610827228,37.24527181819965],[-5.602830989702842,37.23911058341955],[-5.602981597731918,37.238965315521355],[-5.603539125119523,37.23852878027145],[-5.603648288830484,37.238454603461605],[-5.605722492183431,37.237338703860416],[-5.608430723491576,37.235867465273614],[-5.608788912282783,37.23566816965989],[-5.609247359574058,37.235310352367286],[-5.60991320577343,37.23477729450519],[-5.612551862147284,37.23262483753362],[-5.6137071142814055,37.23191124412507],[-5.6166526143208495,37.229668026156176],[-5.617514871792537,37.22899181901364],[-5.618438680563921,37.228307864014575],[-5.619518283780761,37.227589683296756],[-5.62256391768169,37.22555287648311],[-5.627216880165274,37.222402534736084],[-5.6356834512126,37.216686521299515],[-5.640272153784728,37.21250383874004],[-5.642998049162566,37.21000329989409],[-5.647859628007205,37.20556909981586],[-5.6488240520577,37.2047021025313],[-5.650667439917995,37.20324242401223],[-5.659219205948502,37.19649769213415],[-5.667136274281145,37.19023256520775],[-5.669583605415743,37.18829851652012],[-5.671607477471135,37.18671381243678],[-5.673759827504717,37.184384576056075],[-5.678915943490262,37.178866645257116],[-5.681929658762832,37.175660043441624],[-5.686131204629998,37.17112809841713],[-5.688598927499161,37.16849928271878],[-5.69747107290553,37.15899777077471],[-5.707155933845936,37.151100423694004],[-5.711073677777208,37.14790607164773],[-5.722791902034078,37.138317280899365],[-5.726633309692609,37.133763849210034],[-5.737223303607767,37.12130685435043],[-5.738382075804459,37.11866626954074],[-5.741936598441382,37.112888969967884],[-5.744679796533986,37.110075243720786],[-5.751001961152432,37.10356863528251],[-5.754556098679161,37.10032130972],[-5.764121085035539,37.09189601789904],[-5.767757641185571,37.08878349236996],[-5.770500341704728,37.08679626635784],[-5.776578603521089,37.08272363427865],[-5.779144922633215,37.08115486906762],[-5.782807946562672,37.07843383749189],[-5.784736713703145,37.07712659238961],[-5.790778460147082,37.07316923005529],[-5.790963188382865,37.072995813184136],[-5.791453839361858,37.07269716328758],[-5.792895706152505,37.071307469830124],[-5.793132716987934,37.071148767376236],[-5.7935222360826755,37.07078450257044],[-5.7939191961307275,37.070450772859004],[-5.7943214968356225,37.070131864519986],[-5.794783806096335,37.069821109686174],[-5.794855514036287,37.06971415074997],[-5.794863700804279,37.06961187960725],[-5.7946359728054375,37.06812595202189],[-5.794656033205709,37.06802180593718],[-5.794736513585635,37.06793696982149],[-5.795137162857858,37.06773612565895],[-5.795236066851706,37.0676652094709],[-5.795288120065089,37.067565093696345],[-5.795282034630836,37.06745358928049],[-5.795001845504344,37.0660566226191],[-5.794738864662296,37.06474856750437],[-5.794758573276093,37.06463485984232],[-5.794841038753179,37.06454997687837],[-5.795801145062139,37.06397547430671],[-5.796392196411396,37.06359468818859],[-5.796472670413103,37.06350985111151],[-5.798848975978673,37.05923187653586],[-5.798915172470823,37.059137805175276],[-5.800157300184741,37.05784684715712],[-5.8002093995059925,37.05774832320694],[-5.800215937781341,37.057601431451545],[-5.800166775831625,37.05637287030564],[-5.800115026002051,37.05491150424646],[-5.800088644307379,37.05403170323359],[-5.800124776667358,37.053931961504944],[-5.80020318995166,37.053845575746834],[-5.800326927151862,37.05380118347754],[-5.802226208338586,37.0533910527318],[-5.80609650651077,37.052521153603664],[-5.806194038556059,37.052467805789675],[-5.808821252928793,37.05020074050855],[-5.814479350710419,37.04673684632999],[-5.814589268701426,37.04669595747471],[-5.819235674405231,37.04578806791453],[-5.819362907997988,37.045785042083885],[-5.819463370961348,37.04581136219282],[-5.819836046217914,37.046095971921424],[-5.822249114980902,37.047531436206405],[-5.822390051044561,37.04757592978506],[-5.822533309909058,37.047575708887166],[-5.8249238542876665,37.04711364651778],[-5.825065693554023,37.047075177273726],[-5.827263518232084,37.04560326425852],[-5.827491122977749,37.045409630288994],[-5.8276628260703145,37.04521094943833],[-5.831524204538713,37.04083142304604],[-5.835815309125264,37.035954367632],[-5.841556499858845,37.029390630450486],[-5.843412467517788,37.027264172803754],[-5.844220917218915,37.02632608542765],[-5.844760132442649,37.02584804220857],[-5.854065621359726,37.017205293537096],[-5.86416197020804,37.00805949354906],[-5.866425245282314,37.00599926582804],[-5.872944826949714,37.00009320544981],[-5.880730062587226,36.993021550956236],[-5.881931709185713,36.99125443825659],[-5.8853499963438605,36.981791283585],[-5.887656008098313,36.97535373808516],[-5.892799521891114,36.965990097495585],[-5.8976424175681075,36.960178686748996],[-5.901348026628046,36.95786581440754],[-5.907837492666048,36.95344122299276],[-5.918314089685443,36.94607937951327],[-5.92568672032316,36.94050898270621],[-5.933520359542797,36.934577039376954],[-5.936328928787954,36.931834651136725],[-5.941735685382437,36.92704336646872],[-5.943194637578889,36.92499289717109],[-5.9488610376791335,36.91440069263888],[-5.951391040000953,36.91192276298101],[-5.953310441376506,36.90947389589887],[-5.953661282625329,36.90752779285135],[-5.954215204837228,36.90603425257482],[-5.955849543681829,36.90492575872357],[-5.959364379783357,36.90179818954759],[-5.962701346379368,36.89651094066282],[-5.966746634046585,36.88955218695591],[-5.968359115057078,36.88676647200916],[-5.968740568967099,36.88630972907352],[-5.9713027350169625,36.88342112458918],[-5.9765562740811005,36.875362876913094],[-5.9860504012759765,36.86786535958862],[-5.990591316418785,36.864261400027715],[-5.994856592830239,36.8606753173087],[-5.998000443217101,36.85653059220715],[-5.999031656611472,36.85516632261412],[-6.000452770528357,36.85304544022746],[-6.0020918716617775,36.85070094471301],[-6.00563288566055,36.84722077411625],[-6.008723791039133,36.8438013222962],[-6.011069247140562,36.841083280279115],[-6.0148989906643715,36.837377023367246],[-6.017778006381464,36.83456340056865],[-6.019397746982427,36.83331614824401],[-6.024482902302914,36.82938127100737],[-6.0279087933743325,36.82678678618455],[-6.039445106257745,36.82203952136576],[-6.04465743166512,36.8196083471268],[-6.045467802926021,36.819215404681024],[-6.045622551269254,36.819115742372155],[-6.045671973745768,36.818961362964636],[-6.045803810061235,36.8180839664614],[-6.045902814968567,36.81797935325032],[-6.0465818325485605,36.81769399580474],[-6.047283866596682,36.817388905150096],[-6.047561051220252,36.81737541542308],[-6.048213829851749,36.8174288449617],[-6.0488648380321095,36.817437658568366],[-6.049149696030502,36.81741758852561],[-6.049455550450965,36.81732680240731],[-6.051333993406949,36.8164747324646],[-6.060567454840575,36.80884319452802],[-6.061132351927812,36.808385254961415],[-6.061621641931455,36.80812065103646],[-6.0619430661256954,36.807924167966156],[-6.062034872316894,36.807838866367455],[-6.062314938068905,36.80740102096712],[-6.0644527590531325,36.8047287487515],[-6.0665815750582786,36.80157505419604],[-6.070936848346214,36.79762176682337],[-6.080525045404864,36.79101961187627],[-6.082132732204442,36.78997616572079],[-6.084118268560794,36.78883902978779],[-6.093061346443713,36.78382694202713],[-6.095143803272618,36.782642905937486],[-6.102480689007525,36.778639593424074],[-6.107618655289835,36.77579465898666],[-6.1126781357432645,36.772974493414935],[-6.115471354838468,36.771007889778275],[-6.1178970575908185,36.76919023427403],[-6.122807879048968,36.76554666384044],[-6.128258851646008,36.76153075509215],[-6.133144805672909,36.75790015209339],[-6.136580098402459,36.755208112982935],[-6.140890520137415,36.75174900732239],[-6.142602885219016,36.74776256403185],[-6.145050985640676,36.74532635624867],[-6.153044045641644,36.73609762562425],[-6.159300145084289,36.72879296518508],[-6.1685628020916266,36.72189085459142],[-6.1772565651909455,36.71827236388452],[-6.177545272674233,36.717971191086626],[-6.177904574700698,36.71762903213116],[-6.178198387856695,36.71747527234183],[-6.179372308814823,36.71711853551522],[-6.1797596696420145,36.716904033287236],[-6.180261343968428,36.716195249001345],[-6.182975835275152,36.712033346497634],[-6.183028476934922,36.71196495247457],[-6.183957962922303,36.711160173315946],[-6.18947026718636,36.7065475242443],[-6.192422466213809,36.7047776615725],[-6.194641457765958,36.70347661669259],[-6.19524435560174,36.70311273710111],[-6.195468049713496,36.70296637778908],[-6.19561695716219,36.702831596836056],[-6.19579777922585,36.70260664497728],[-6.196586596585824,36.70147222158965],[-6.198335862738507,36.69904137365305],[-6.201294790219759,36.69637872233461],[-6.203376746872363,36.69349381798389],[-6.205037770162589,36.69055273538086],[-6.205458866620298,36.689820504163066],[-6.205945032823721,36.68871947025479],[-6.210484932571472,36.68146408069826],[-6.211063032958665,36.68058494322026],[-6.211483934279497,36.6800408927019],[-6.211538496881362,36.67992458867848],[-6.211576927534401,36.679610955657495],[-6.211842422628871,36.67932946918803],[-6.212379882439358,36.678826925101745],[-6.212641525860259,36.67845303821633],[-6.212760557732568,36.67831585409706],[-6.212819150924427,36.678248881791006],[-6.212880771198921,36.67815949945669],[-6.213018327691369,36.677753875834505],[-6.213080080013637,36.67766767958803],[-6.213378799581513,36.677423569490664],[-6.226142550167866,36.66755070967984],[-6.23080432479599,36.663975747034605],[-6.23217458548912,36.66294333160649],[-6.23364354346361,36.661905028903796],[-6.234223490033003,36.66147778952701],[-6.234535277836895,36.66121090238605],[-6.235620224679892,36.66032340639121],[-6.239322549906,36.657343601979704],[-6.251066662233168,36.648250902308625],[-6.254742858597537,36.64538748777842],[-6.25609765230099,36.64428505727059],[-6.258446548973449,36.642387592355384],[-6.26592574999301,36.636243498513934],[-6.274866794287408,36.62892116694532],[-6.282831277536392,36.62237411943347],[-6.283242621122774,36.621903455689534]]},"properties":{"id_dera":11010900000028,"codigo":16,"nombre":"Rota-Arahal"}},{"type":"Feature","geometry":{"bbox":[-6.037676854633513,37.30932006978763,-5.995901609808773,37.36476951585569],"type":"LineString","coordinates":[[-6.037477331586553,37.30932519586105],[-6.037679146672742,37.309376988433435],[-6.036301446172769,37.31201055298891],[-6.0346990701777745,37.31509049598999],[-6.034630554571942,37.31516062771744],[-6.03181272216999,37.31640286193683],[-6.031701748515491,37.316481677841374],[-6.028935647317739,37.32102721836735],[-6.0280034331103005,37.3218563823939],[-6.026129599115758,37.32348561053968],[-6.025840847568918,37.32402752250429],[-6.023219930208654,37.32916845475092],[-6.021296672762144,37.33145967500094],[-6.019309440816082,37.33231953242277],[-6.017633110800545,37.332985293686754],[-6.016081521267236,37.33367823696379],[-6.014005391887099,37.33457826028974],[-6.013908629721637,37.3346566977454],[-6.013889572610051,37.33477493753978],[-6.014752007541014,37.336355916683075],[-6.016640162491721,37.339790977026915],[-6.01672566541777,37.339906548563334],[-6.0171576752199725,37.340358939743304],[-6.017190293246494,37.340460666815645],[-6.017155919065474,37.34055270842687],[-6.016924821822821,37.34072194302643],[-6.011870805316294,37.3440149943096],[-6.011797035151148,37.34407385176489],[-6.011772917092424,37.34418462312566],[-6.011527537478985,37.34828187021522],[-6.011473726722559,37.34834423026706],[-6.011360976062527,37.348400069391346],[-6.003632059967666,37.350021183998685],[-6.003526587879178,37.35008099644698],[-6.003470991527068,37.3501582252772],[-6.003004513700577,37.35826850979974],[-6.0029784956024095,37.35874968265426],[-6.002894246561977,37.35944125325259],[-6.002897575789238,37.35952473590596],[-6.002950744983921,37.35960505286447],[-6.003281998435743,37.35985683314027],[-6.003336410083285,37.35990862950494],[-6.003332760373329,37.3599960880027],[-6.003288262165626,37.36019284215364],[-6.00326733369178,37.36062260570175],[-6.003133070917755,37.36077605884109],[-6.003045848564377,37.360856144780385],[-6.002948664104982,37.36092508826964],[-6.0027836377609445,37.36096346816933],[-6.002512176787114,37.36101784685327],[-6.002043318287264,37.361134217235644],[-6.001617244023278,37.36124949909204],[-6.001507718928256,37.361307359332116],[-6.001171135539979,37.361817311129286],[-6.000805872224957,37.36232419177095],[-6.0007424914850125,37.362405569916966],[-6.0002410838580635,37.36283993558263],[-6.000137401247979,37.3628653589157],[-5.99943167976291,37.36283009394128],[-5.999315506954549,37.362840639520286],[-5.998412956861949,37.363061065742414],[-5.998304065765496,37.36307522409055],[-5.9971382511846105,37.36307820747474],[-5.997096370506186,37.363102060728785],[-5.997037104961739,37.364482424601526],[-5.996993490471557,37.3645822920886],[-5.996895464744316,37.364630360250395],[-5.996281947701849,37.364759873001],[-5.99590115679331,37.364758131794666]]},"properties":{"id_dera":11010900000029,"codigo":17,"nombre":"IA Sevilla"}}]}