{"type":"FeatureCollection","features":[{"type":"Feature","geometry":{"bbox":[-5.928037088040614,37.48501214859304,-5.928037088040614,37.48501214859304],"type":"Point","coordinates":[-5.928037088040614,37.48501214859304]},"properties":{"id_dera":11010300000961,"codigo":44,"nombre":"CANAMO","tensi_m_kV":132,"nv_tens_kV":"132, 15","cod_mun":"41081","municipio":"La Rinconada","provincia":"Sevilla"}},{"type":"Feature","geometry":{"bbox":[-6.384195106950039,37.342097132717974,-6.384195106950039,37.342097132717974],"type":"Point","coordinates":[-6.384195106950039,37.342097132717974]},"properties":{"id_dera":11010300000964,"codigo":636,"nombre":"CHUCENA","tensi_m_kV":220,"nv_tens_kV":"220, 66, 20","cod_mun":"21030","municipio":"Chucena","provincia":"Huelva"}},{"type":"Feature","geometry":{"bbox":[-5.882757219237391,37.117571605690436,-5.882757219237391,37.117571605690436],"type":"Point","coordinates":[-5.882757219237391,37.117571605690436]},"properties":{"id_dera":11010300000970,"codigo":49,"nombre":"PALACIOS","tensi_m_kV":132,"nv_tens_kV":"132, 66, 15","cod_mun":"41069","municipio":"Los Palacios y Villafranca","provincia":"Sevilla"}},{"type":"Feature","geometry":{"bbox":[-6.205074437367446,37.392449643292295,-6.205074437367446,37.392449643292295],"type":"Point","coordinates":[-6.205074437367446,37.392449643292295]},"properties":{"id_dera":11010300000979,"codigo":60,"nombre":"SANLUC_M","tensi_m_kV":66,"nv_tens_kV":"66, 15, 20","cod_mun":"41087","municipio":"Sanlúcar la Mayor","provincia":"Sevilla"}},{"type":"Feature","geometry":{"bbox":[-5.974664677244322,37.51738671892767,-5.974664677244322,37.51738671892767],"type":"Point","coordinates":[-5.974664677244322,37.51738671892767]},"properties":{"id_dera":11010300000981,"codigo":62,"nombre":"ALCALRIO","tensi_m_kV":66,"nv_tens_kV":"66, 15","cod_mun":"41005","municipio":"Alcalá del Río","provincia":"Sevilla"}},{"type":"Feature","geometry":{"bbox":[-5.947987328742229,37.38637846508645,-5.947987328742229,37.38637846508645],"type":"Point","coordinates":[-5.947987328742229,37.38637846508645]},"properties":{"id_dera":11010300000994,"codigo":75,"nombre":"AMATE","tensi_m_kV":66,"nv_tens_kV":"66, 15","cod_mun":"41091","municipio":"Sevilla","provincia":"Sevilla"}},{"type":"Feature","geometry":{"bbox":[-5.884976549837376,37.54084011895293,-5.884976549837376,37.54084011895293],"type":"Point","coordinates":[-5.884976549837376,37.54084011895293]},"properties":{"id_dera":11010300000996,"codigo":77,"nombre":"AGRIBETI","tensi_m_kV":66,"nv_tens_kV":"66, 15","cod_mun":"41018","municipio":"Brenes","provincia":"Sevilla"}},{"type":"Feature","geometry":{"bbox":[-6.002741011746777,37.387950303888026,-6.002741011746777,37.387950303888026],"type":"Point","coordinates":[-6.002741011746777,37.387950303888026]},"properties":{"id_dera":11010300001003,"codigo":84,"nombre":"ARJONA","tensi_m_kV":66,"nv_tens_kV":"66, 20","cod_mun":"41091","municipio":"Sevilla","provincia":"Sevilla"}},{"type":"Feature","geometry":{"bbox":[-5.885092585837461,37.35988205585777,-5.885092585837461,37.35988205585777],"type":"Point","coordinates":[-5.885092585837461,37.35988205585777]},"properties":{"id_dera":11010300001007,"codigo":90,"nombre":"ARGON","tensi_m_kV":66,"nv_tens_kV":"66","cod_mun":"41004","municipio":"Alcalá de Guadaíra","provincia":"Sevilla"}},{"type":"Feature","geometry":{"bbox":[-5.898211187838423,37.367905283566486,-5.898211187838423,37.367905283566486],"type":"Point","coordinates":[-5.898211187838423,37.367905283566486]},"properties":{"id_dera":11010300001012,"codigo":111,"nombre":"ESPALDIL","tensi_m_kV":66,"nv_tens_kV":"66, 15","cod_mun":"41004","municipio":"Alcalá de Guadaíra","provincia":"Sevilla"}},{"type":"Feature","geometry":{"bbox":[-5.714023544926733,37.40002983610171,-5.714023544926733,37.40002983610171],"type":"Point","coordinates":[-5.714023544926733,37.40002983610171]},"properties":{"id_dera":11010300001013,"codigo":112,"nombre":"VISO","tensi_m_kV":66,"nv_tens_kV":"66, 15","cod_mun":"41102","municipio":"El Viso del Alcor","provincia":"Sevilla"}},{"type":"Feature","geometry":{"bbox":[-6.077479469153712,37.350624719747216,-6.077479469153712,37.350624719747216],"type":"Point","coordinates":[-6.077479469153712,37.350624719747216]},"properties":{"id_dera":11010300001020,"codigo":119,"nombre":"BORMUJOS","tensi_m_kV":66,"nv_tens_kV":"66, 15","cod_mun":"41017","municipio":"Bormujos","provincia":"Sevilla"}},{"type":"Feature","geometry":{"bbox":[-5.984616523645263,37.34013920363601,-5.984616523645263,37.34013920363601],"type":"Point","coordinates":[-5.984616523645263,37.34013920363601]},"properties":{"id_dera":11010300001026,"codigo":132,"nombre":"PALMALTA","tensi_m_kV":66,"nv_tens_kV":"66, 20","cod_mun":"41091","municipio":"Sevilla","provincia":"Sevilla"}},{"type":"Feature","geometry":{"bbox":[-6.061046284552125,37.32976197682447,-6.061046284552125,37.32976197682447],"type":"Point","coordinates":[-6.061046284552125,37.32976197682447]},"properties":{"id_dera":11010300001028,"codigo":138,"nombre":"LAMINILL","tensi_m_kV":66,"nv_tens_kV":"66, 15","cod_mun":"41059","municipio":"Mairena del Aljarafe","provincia":"Sevilla"}},{"type":"Feature","geometry":{"bbox":[-6.141320733560412,37.16105494423821,-6.141320733560412,37.16105494423821],"type":"Point","coordinates":[-6.141320733560412,37.16105494423821]},"properties":{"id_dera":11010300001030,"codigo":153,"nombre":"ISLAS","tensi_m_kV":66,"nv_tens_kV":"66, 15","cod_mun":"41902","municipio":"Isla Mayor","provincia":"Sevilla"}},{"type":"Feature","geometry":{"bbox":[-5.9760661292445185,37.37669319897588,-5.9760661292445185,37.37669319897588],"type":"Point","coordinates":[-5.9760661292445185,37.37669319897588]},"properties":{"id_dera":11010300001038,"codigo":162,"nombre":"ENRAMADI","tensi_m_kV":66,"nv_tens_kV":"66, 20","cod_mun":"41091","municipio":"Sevilla","provincia":"Sevilla"}},{"type":"Feature","geometry":{"bbox":[-5.9863782304454265,37.30417282079669,-5.9863782304454265,37.30417282079669],"type":"Point","coordinates":[-5.9863782304454265,37.30417282079669]},"properties":{"id_dera":11010300001044,"codigo":168,"nombre":"FUENTE_R","tensi_m_kV":66,"nv_tens_kV":"15, 66","cod_mun":"41038","municipio":"Dos Hermanas","provincia":"Sevilla"}},{"type":"Feature","geometry":{"bbox":[-5.993752401746005,37.39187560759231,-5.993752401746005,37.39187560759231],"type":"Point","coordinates":[-5.993752401746005,37.39187560759231]},"properties":{"id_dera":11010300001049,"codigo":178,"nombre":"CUNA","tensi_m_kV":66,"nv_tens_kV":"20, 66","cod_mun":"41091","municipio":"Sevilla","provincia":"Sevilla"}},{"type":"Feature","geometry":{"bbox":[-5.959722605343172,37.38794208048814,-5.959722605343172,37.38794208048814],"type":"Point","coordinates":[-5.959722605343172,37.38794208048814]},"properties":{"id_dera":11010300001051,"codigo":183,"nombre":"CRUZCAMP","tensi_m_kV":66,"nv_tens_kV":"66, 20, 15","cod_mun":"41091","municipio":"Sevilla","provincia":"Sevilla"}},{"type":"Feature","geometry":{"bbox":[-5.86294496023589,37.38867990568914,-5.86294496023589,37.38867990568914],"type":"Point","coordinates":[-5.86294496023589,37.38867990568914]},"properties":{"id_dera":11010300001057,"codigo":190,"nombre":"HEINEKEN","tensi_m_kV":132,"nv_tens_kV":"132","cod_mun":"41091","municipio":"Sevilla","provincia":"Sevilla"}},{"type":"Feature","geometry":{"bbox":[-5.973297859944259,37.42982544343347,-5.973297859944259,37.42982544343347],"type":"Point","coordinates":[-5.973297859944259,37.42982544343347]},"properties":{"id_dera":11010300001072,"codigo":205,"nombre":"CROSS_SJ","tensi_m_kV":132,"nv_tens_kV":"132, 20","cod_mun":"41091","municipio":"Sevilla","provincia":"Sevilla"}},{"type":"Feature","geometry":{"bbox":[-6.040268151350146,37.38978552438992,-6.040268151350146,37.38978552438992],"type":"Point","coordinates":[-6.040268151350146,37.38978552438992]},"properties":{"id_dera":11010300001073,"codigo":206,"nombre":"CARAMBOL","tensi_m_kV":66,"nv_tens_kV":"15, 66","cod_mun":"41021","municipio":"Camas","provincia":"Sevilla"}},{"type":"Feature","geometry":{"bbox":[-6.059604066451905,37.46406019207019,-6.059604066451905,37.46406019207019],"type":"Point","coordinates":[-6.059604066451905,37.46406019207019]},"properties":{"id_dera":11010300001074,"codigo":207,"nombre":"ITALICA","tensi_m_kV":132,"nv_tens_kV":"132, 15","cod_mun":"41085","municipio":"Salteras","provincia":"Sevilla"}},{"type":"Feature","geometry":{"bbox":[-5.959357821043139,37.39591766399676,-5.959357821043139,37.39591766399676],"type":"Point","coordinates":[-5.959357821043139,37.39591766399676]},"properties":{"id_dera":11010300001089,"codigo":222,"nombre":"MV_KANSA","tensi_m_kV":66,"nv_tens_kV":"20, 66","cod_mun":"41091","municipio":"Sevilla","provincia":"Sevilla"}},{"type":"Feature","geometry":{"bbox":[-5.883748499237351,37.40707780250905,-5.883748499237351,37.40707780250905],"type":"Point","coordinates":[-5.883748499237351,37.40707780250905]},"properties":{"id_dera":11010300001093,"codigo":226,"nombre":"EADSCASA","tensi_m_kV":132,"nv_tens_kV":"132","cod_mun":"41091","municipio":"Sevilla","provincia":"Sevilla"}},{"type":"Feature","geometry":{"bbox":[-6.185242611564996,37.53004888184063,-6.185242611564996,37.53004888184063],"type":"Point","coordinates":[-6.185242611564996,37.53004888184063]},"properties":{"id_dera":11010300001095,"codigo":228,"nombre":"BERROCAL","tensi_m_kV":132,"nv_tens_kV":"132","cod_mun":"41045","municipio":"Gerena","provincia":"Sevilla"}},{"type":"Feature","geometry":{"bbox":[-5.885803204037486,37.440510356445216,-5.885803204037486,37.440510356445216],"type":"Point","coordinates":[-5.885803204037486,37.440510356445216]},"properties":{"id_dera":11010300001102,"codigo":235,"nombre":"AEROPUER","tensi_m_kV":132,"nv_tens_kV":"132, 15","cod_mun":"41081","municipio":"La Rinconada","provincia":"Sevilla"}},{"type":"Feature","geometry":{"bbox":[-5.9501708951423495,37.47297414978008,-5.9501708951423495,37.47297414978008],"type":"Point","coordinates":[-5.9501708951423495,37.47297414978008]},"properties":{"id_dera":11010300001116,"codigo":249,"nombre":"RINCONAD","tensi_m_kV":132,"nv_tens_kV":"132, 15","cod_mun":"41081","municipio":"La Rinconada","provincia":"Sevilla"}},{"type":"Feature","geometry":{"bbox":[-6.087240456754511,37.55245800596485,-6.087240456754511,37.55245800596485],"type":"Point","coordinates":[-6.087240456754511,37.55245800596485]},"properties":{"id_dera":11010300001120,"codigo":253,"nombre":"RUTPLATA","tensi_m_kV":132,"nv_tens_kV":"132, 15","cod_mun":"41049","municipio":"Guillena","provincia":"Sevilla"}},{"type":"Feature","geometry":{"bbox":[-5.984870918245259,37.384102650983884,-5.984870918245259,37.384102650983884],"type":"Point","coordinates":[-5.984870918245259,37.384102650983884]},"properties":{"id_dera":11010300001129,"codigo":263,"nombre":"RASTRO","tensi_m_kV":66,"nv_tens_kV":"66, 20","cod_mun":"41091","municipio":"Sevilla","provincia":"Sevilla"}},{"type":"Feature","geometry":{"bbox":[-6.144025687760554,37.352936421049534,-6.144025687760554,37.352936421049534],"type":"Point","coordinates":[-6.144025687760554,37.352936421049534]},"properties":{"id_dera":11010300001137,"codigo":271,"nombre":"BOLLULLM","tensi_m_kV":66,"nv_tens_kV":"15, 66","cod_mun":"41016","municipio":"Bollullos de la Mitación","provincia":"Sevilla"}},{"type":"Feature","geometry":{"bbox":[-5.968291579543886,37.35607455345344,-5.968291579543886,37.35607455345344],"type":"Point","coordinates":[-5.968291579543886,37.35607455345344]},"properties":{"id_dera":11010300001138,"codigo":272,"nombre":"PALMERA","tensi_m_kV":66,"nv_tens_kV":"20, 66, 15","cod_mun":"41091","municipio":"Sevilla","provincia":"Sevilla"}},{"type":"Feature","geometry":{"bbox":[-5.9600364622432025,37.37640702857561,-5.9600364622432025,37.37640702857561],"type":"Point","coordinates":[-5.9600364622432025,37.37640702857561]},"properties":{"id_dera":11010300001150,"codigo":284,"nombre":"NERVION","tensi_m_kV":66,"nv_tens_kV":"20, 66, 15","cod_mun":"41091","municipio":"Sevilla","provincia":"Sevilla"}},{"type":"Feature","geometry":{"bbox":[-5.803608806132026,37.20475177468755,-5.803608806132026,37.20475177468755],"type":"Point","coordinates":[-5.803608806132026,37.20475177468755]},"properties":{"id_dera":11010300001169,"codigo":303,"nombre":"MORERA","tensi_m_kV":66,"nv_tens_kV":"15, 66","cod_mun":"41095","municipio":"Utrera","provincia":"Sevilla"}},{"type":"Feature","geometry":{"bbox":[-6.229040209470212,37.50964244081863,-6.229040209470212,37.50964244081863],"type":"Point","coordinates":[-6.229040209470212,37.50964244081863]},"properties":{"id_dera":11010300001170,"codigo":304,"nombre":"AZNALCOL","tensi_m_kV":132,"nv_tens_kV":"132, 15","cod_mun":"41013","municipio":"Aznalcóllar","provincia":"Sevilla"}},{"type":"Feature","geometry":{"bbox":[-6.2432595417721375,37.36737180736488,-6.2432595417721375,37.36737180736488],"type":"Point","coordinates":[-6.2432595417721375,37.36737180736488]},"properties":{"id_dera":11010300001179,"codigo":313,"nombre":"HUEVAR","tensi_m_kV":66,"nv_tens_kV":"15, 66","cod_mun":"41015","municipio":"Benacazón","provincia":"Sevilla"}},{"type":"Feature","geometry":{"bbox":[-6.045985542550693,37.36406988186196,-6.045985542550693,37.36406988186196],"type":"Point","coordinates":[-6.045985542550693,37.36406988186196]},"properties":{"id_dera":11010300001182,"codigo":316,"nombre":"ZAUDIN","tensi_m_kV":66,"nv_tens_kV":"66, 15","cod_mun":"41093","municipio":"Tomares","provincia":"Sevilla"}},{"type":"Feature","geometry":{"bbox":[-5.823022880333229,37.33718197813313,-5.823022880333229,37.33718197813313],"type":"Point","coordinates":[-5.823022880333229,37.33718197813313]},"properties":{"id_dera":11010300001191,"codigo":325,"nombre":"AGUILA","tensi_m_kV":132,"nv_tens_kV":"132, 15","cod_mun":"41004","municipio":"Alcalá de Guadaíra","provincia":"Sevilla"}},{"type":"Feature","geometry":{"bbox":[-6.122642679458203,37.451378320756326,-6.122642679458203,37.451378320756326],"type":"Point","coordinates":[-6.122642679458203,37.451378320756326]},"properties":{"id_dera":11010300001208,"codigo":343,"nombre":"SALTERAS_66","tensi_m_kV":66,"nv_tens_kV":"66, 15","cod_mun":"41085","municipio":"Salteras","provincia":"Sevilla"}},{"type":"Feature","geometry":{"bbox":[-6.001486790246699,37.33597966753143,-6.001486790246699,37.33597966753143],"type":"Point","coordinates":[-6.001486790246699,37.33597966753143]},"properties":{"id_dera":11010300001220,"codigo":355,"nombre":"TORRECUE","tensi_m_kV":66,"nv_tens_kV":"20, 66","cod_mun":"41091","municipio":"Sevilla","provincia":"Sevilla"}},{"type":"Feature","geometry":{"bbox":[-5.982805980345067,37.394323423594976,-5.982805980345067,37.394323423594976],"type":"Point","coordinates":[-5.982805980345067,37.394323423594976]},"properties":{"id_dera":11010300001229,"codigo":364,"nombre":"OSARIO","tensi_m_kV":66,"nv_tens_kV":"66, 20","cod_mun":"41091","municipio":"Sevilla","provincia":"Sevilla"}},{"type":"Feature","geometry":{"bbox":[-5.8710779889364675,37.37518313967447,-5.8710779889364675,37.37518313967447],"type":"Point","coordinates":[-5.8710779889364675,37.37518313967447]},"properties":{"id_dera":11010300001233,"codigo":368,"nombre":"PALILLOS","tensi_m_kV":66,"nv_tens_kV":"66, 15","cod_mun":"41004","municipio":"Alcalá de Guadaíra","provincia":"Sevilla"}},{"type":"Feature","geometry":{"bbox":[-6.013805009547765,37.378625090177884,-6.013805009547765,37.378625090177884],"type":"Point","coordinates":[-6.013805009547765,37.378625090177884]},"properties":{"id_dera":11010300001240,"codigo":375,"nombre":"REMEDIOS","tensi_m_kV":66,"nv_tens_kV":"66, 20","cod_mun":"41091","municipio":"Sevilla","provincia":"Sevilla"}},{"type":"Feature","geometry":{"bbox":[-6.0489523079509935,37.3129064836061,-6.0489523079509935,37.3129064836061],"type":"Point","coordinates":[-6.0489523079509935,37.3129064836061]},"properties":{"id_dera":11010300001247,"codigo":383,"nombre":"PALOMARE","tensi_m_kV":66,"nv_tens_kV":"66, 15","cod_mun":"41070","municipio":"Palomares del Río","provincia":"Sevilla"}},{"type":"Feature","geometry":{"bbox":[-5.856312703235418,37.43817477264273,-5.856312703235418,37.43817477264273],"type":"Point","coordinates":[-5.856312703235418,37.43817477264273]},"properties":{"id_dera":11010300001250,"codigo":386,"nombre":"PARQ_AER","tensi_m_kV":132,"nv_tens_kV":"132, 20","cod_mun":"41081","municipio":"La Rinconada","provincia":"Sevilla"}},{"type":"Feature","geometry":{"bbox":[-6.308228062780803,37.29459118618512,-6.308228062780803,37.29459118618512],"type":"Point","coordinates":[-6.308228062780803,37.29459118618512]},"properties":{"id_dera":11010300001255,"codigo":391,"nombre":"PILAS","tensi_m_kV":66,"nv_tens_kV":"66, 20, 15","cod_mun":"41075","municipio":"Pilas","provincia":"Sevilla"}},{"type":"Feature","geometry":{"bbox":[-5.87217305263655,37.357048168954705,-5.87217305263655,37.357048168954705],"type":"Point","coordinates":[-5.87217305263655,37.357048168954705]},"properties":{"id_dera":11010300001259,"codigo":395,"nombre":"ALCAGUAD","tensi_m_kV":132,"nv_tens_kV":"132, 15","cod_mun":"41004","municipio":"Alcalá de Guadaíra","provincia":"Sevilla"}},{"type":"Feature","geometry":{"bbox":[-5.875144436136774,37.32389812191853,-5.875144436136774,37.32389812191853],"type":"Point","coordinates":[-5.875144436136774,37.32389812191853]},"properties":{"id_dera":11010300001260,"codigo":396,"nombre":"OROMANA","tensi_m_kV":132,"nv_tens_kV":"132, 15","cod_mun":"41004","municipio":"Alcalá de Guadaíra","provincia":"Sevilla"}},{"type":"Feature","geometry":{"bbox":[-5.93894477664146,37.479841075087464,-5.93894477664146,37.479841075087464],"type":"Point","coordinates":[-5.93894477664146,37.479841075087464]},"properties":{"id_dera":11010300001264,"codigo":400,"nombre":"S_JOSE","tensi_m_kV":132,"nv_tens_kV":"132","cod_mun":"41081","municipio":"La Rinconada","provincia":"Sevilla"}},{"type":"Feature","geometry":{"bbox":[-6.0317099708493656,37.376628127875655,-6.0317099708493656,37.376628127875655],"type":"Point","coordinates":[-6.0317099708493656,37.376628127875655]},"properties":{"id_dera":11010300001270,"codigo":406,"nombre":"TOMARES","tensi_m_kV":66,"nv_tens_kV":"66, 15","cod_mun":"41093","municipio":"Tomares","provincia":"Sevilla"}},{"type":"Feature","geometry":{"bbox":[-5.999622678546519,37.36610406346427,-5.999622678546519,37.36610406346427],"type":"Point","coordinates":[-5.999622678546519,37.36610406346427]},"properties":{"id_dera":11010300001276,"codigo":412,"nombre":"TABLADA","tensi_m_kV":66,"nv_tens_kV":"66, 15, 20","cod_mun":"41091","municipio":"Sevilla","provincia":"Sevilla"}},{"type":"Feature","geometry":{"bbox":[-5.991769700845866,37.33768680853333,-5.991769700845866,37.33768680853333],"type":"Point","coordinates":[-5.991769700845866,37.33768680853333]},"properties":{"id_dera":11010300001282,"codigo":418,"nombre":"GUADAIRA","tensi_m_kV":66,"nv_tens_kV":"66, 15","cod_mun":"41091","municipio":"Sevilla","provincia":"Sevilla"}},{"type":"Feature","geometry":{"bbox":[-5.963846782143521,37.36682066926515,-5.963846782143521,37.36682066926515],"type":"Point","coordinates":[-5.963846782143521,37.36682066926515]},"properties":{"id_dera":11010300001288,"codigo":424,"nombre":"HYTASA","tensi_m_kV":66,"nv_tens_kV":"66, 20, 15","cod_mun":"41091","municipio":"Sevilla","provincia":"Sevilla"}},{"type":"Feature","geometry":{"bbox":[-5.77180137713008,37.184758135865465,-5.77180137713008,37.184758135865465],"type":"Point","coordinates":[-5.77180137713008,37.184758135865465]},"properties":{"id_dera":11010300001291,"codigo":428,"nombre":"UTRERA","tensi_m_kV":66,"nv_tens_kV":"66, 15","cod_mun":"41095","municipio":"Utrera","provincia":"Sevilla"}},{"type":"Feature","geometry":{"bbox":[-5.811537810432388,37.591193256806704,-5.811537810432388,37.591193256806704],"type":"Point","coordinates":[-5.811537810432388,37.591193256806704]},"properties":{"id_dera":11010300001297,"codigo":435,"nombre":"CANTILLA","tensi_m_kV":66,"nv_tens_kV":"15, 66","cod_mun":"41023","municipio":"Cantillana","provincia":"Sevilla"}},{"type":"Feature","geometry":{"bbox":[-5.960861706743246,37.411167309613305,-5.960861706743246,37.411167309613305],"type":"Point","coordinates":[-5.960861706743246,37.411167309613305]},"properties":{"id_dera":11010300001307,"codigo":36,"nombre":"CALONGE","tensi_m_kV":132,"nv_tens_kV":"132, 20","cod_mun":"41091","municipio":"Sevilla","provincia":"Sevilla"}},{"type":"Feature","geometry":{"bbox":[-5.765635193129652,37.38159765418163,-5.765635193129652,37.38159765418163],"type":"Point","coordinates":[-5.765635193129652,37.38159765418163]},"properties":{"id_dera":11010300001309,"codigo":38,"nombre":"CANTOSAL","tensi_m_kV":66,"nv_tens_kV":"66, 15","cod_mun":"41058","municipio":"Mairena del Alcor","provincia":"Sevilla"}},{"type":"Feature","geometry":{"bbox":[-5.846775691534712,37.55282888236581,-5.846775691534712,37.55282888236581],"type":"Point","coordinates":[-5.846775691534712,37.55282888236581]},"properties":{"id_dera":11010300001310,"codigo":39,"nombre":"VALLEINF","tensi_m_kV":132,"nv_tens_kV":"132","cod_mun":"41018","municipio":"Brenes","provincia":"Sevilla"}},{"type":"Feature","geometry":{"bbox":[-5.864379602336008,37.35665993815431,-5.864379602336008,37.35665993815431],"type":"Point","coordinates":[-5.864379602336008,37.35665993815431]},"properties":{"id_dera":11010300001311,"codigo":87,"nombre":"POLO","tensi_m_kV":66,"nv_tens_kV":"66, 15","cod_mun":"41004","municipio":"Alcalá de Guadaíra","provincia":"Sevilla"}},{"type":"Feature","geometry":{"bbox":[-5.917709481639924,37.25926798774752,-5.917709481639924,37.25926798774752],"type":"Point","coordinates":[-5.917709481639924,37.25926798774752]},"properties":{"id_dera":11010300001329,"codigo":442,"nombre":"VALME","tensi_m_kV":132,"nv_tens_kV":"132, 15","cod_mun":"41038","municipio":"Dos Hermanas","provincia":"Sevilla"}},{"type":"Feature","geometry":{"bbox":[-6.243222151471659,37.36756537006786,-6.243222151471659,37.36756537006786],"type":"Point","coordinates":[-6.243222151471659,37.36756537006786]},"properties":{"id_dera":11010300001331,"codigo":504,"nombre":"BENACAZON","tensi_m_kV":66,"nv_tens_kV":"66, 20","cod_mun":"41015","municipio":"Benacazón","provincia":"Sevilla"}},{"type":"Feature","geometry":{"bbox":[-6.308398055078961,37.2945123589786,-6.308398055078961,37.2945123589786],"type":"Point","coordinates":[-6.308398055078961,37.2945123589786]},"properties":{"id_dera":11010300001341,"codigo":515,"nombre":"SANTA AMELIA","tensi_m_kV":66,"nv_tens_kV":"66, 20","cod_mun":"41075","municipio":"Pilas","provincia":"Sevilla"}},{"type":"Feature","geometry":{"bbox":[-5.997595535346328,37.41068699371271,-5.997595535346328,37.41068699371271],"type":"Point","coordinates":[-5.997595535346328,37.41068699371271]},"properties":{"id_dera":11010300001360,"codigo":6,"nombre":"ALAMILLO","tensi_m_kV":66,"nv_tens_kV":"66, 20","cod_mun":"41091","municipio":"Sevilla","provincia":"Sevilla"}},{"type":"Feature","geometry":{"bbox":[-5.984277093245178,37.41727318731987,-5.984277093245178,37.41727318731987],"type":"Point","coordinates":[-5.984277093245178,37.41727318731987]},"properties":{"id_dera":11010300001370,"codigo":23,"nombre":"EMPALME","tensi_m_kV":132,"nv_tens_kV":"132, 66, 20, 15","cod_mun":"41091","municipio":"Sevilla","provincia":"Sevilla"}},{"type":"Feature","geometry":{"bbox":[-5.759080360498407,37.5571812529311,-5.759080360498407,37.5571812529311],"type":"Point","coordinates":[-5.759080360498407,37.5571812529311]},"properties":{"id_dera":11010300001380,"codigo":590,"nombre":"CARMONA_400","tensi_m_kV":400,"nv_tens_kV":"400, 220","cod_mun":"41024","municipio":"Carmona","provincia":"Sevilla"}},{"type":"Feature","geometry":{"bbox":[-6.069838184411634,37.48168224802459,-6.069838184411634,37.48168224802459],"type":"Point","coordinates":[-6.069838184411634,37.48168224802459]},"properties":{"id_dera":11010300001381,"codigo":591,"nombre":"SALTERAS_220","tensi_m_kV":220,"nv_tens_kV":"220","cod_mun":"41085","municipio":"Salteras","provincia":"Sevilla"}},{"type":"Feature","geometry":{"bbox":[-6.26631094612659,37.440428120427924,-6.26631094612659,37.440428120427924],"type":"Point","coordinates":[-6.26631094612659,37.440428120427924]},"properties":{"id_dera":11010300001382,"codigo":592,"nombre":"CASAQUEMADA","tensi_m_kV":220,"nv_tens_kV":"220","cod_mun":"41087","municipio":"Sanlúcar la Mayor","provincia":"Sevilla"}},{"type":"Feature","geometry":{"bbox":[-6.081164107553949,37.51506740932492,-6.081164107553949,37.51506740932492],"type":"Point","coordinates":[-6.081164107553949,37.51506740932492]},"properties":{"id_dera":11010300001389,"codigo":31,"nombre":"FUNDICIO","tensi_m_kV":132,"nv_tens_kV":"132, 20","cod_mun":"41049","municipio":"Guillena","provincia":"Sevilla"}},{"type":"Feature","geometry":{"bbox":[-6.039310949950033,37.425394536928515,-6.039310949950033,37.425394536928515],"type":"Point","coordinates":[-6.039310949950033,37.425394536928515]},"properties":{"id_dera":11010300001392,"codigo":595,"nombre":"SANTIPONCE","tensi_m_kV":220,"nv_tens_kV":"220, 132, 66, 15","cod_mun":"41096","municipio":"Valencina de la Concepción","provincia":"Sevilla"}},{"type":"Feature","geometry":{"bbox":[-6.094504469555238,37.34448783258088,-6.094504469555238,37.34448783258088],"type":"Point","coordinates":[-6.094504469555238,37.34448783258088]},"properties":{"id_dera":11010300001394,"codigo":624,"nombre":"ALJARAFE","tensi_m_kV":220,"nv_tens_kV":"220, 66, 15","cod_mun":"41016","municipio":"Bollullos de la Mitación","provincia":"Sevilla"}},{"type":"Feature","geometry":{"bbox":[-6.097868233055501,37.63607236755359,-6.097868233055501,37.63607236755359],"type":"Point","coordinates":[-6.097868233055501,37.63607236755359]},"properties":{"id_dera":11010300001401,"codigo":631,"nombre":"GUILLENA","tensi_m_kV":400,"nv_tens_kV":"400, 220, 132, 30, 15","cod_mun":"41049","municipio":"Guillena","provincia":"Sevilla"}},{"type":"Feature","geometry":{"bbox":[-5.905562515638998,37.298234319190364,-5.905562515638998,37.298234319190364],"type":"Point","coordinates":[-5.905562515638998,37.298234319190364]},"properties":{"id_dera":11010300001406,"codigo":607,"nombre":"DOS HERMANAS","tensi_m_kV":220,"nv_tens_kV":"220, 132, 66, 15","cod_mun":"41004","municipio":"Alcalá de Guadaíra","provincia":"Sevilla"}},{"type":"Feature","geometry":{"bbox":[-5.856379604935437,37.38636985248663,-5.856379604935437,37.38636985248663],"type":"Point","coordinates":[-5.856379604935437,37.38636985248663]},"properties":{"id_dera":11010300001410,"codigo":611,"nombre":"ALCORES","tensi_m_kV":220,"nv_tens_kV":"220, 132, 66, 15","cod_mun":"41004","municipio":"Alcalá de Guadaíra","provincia":"Sevilla"}},{"type":"Feature","geometry":{"bbox":[-5.9448827780420155,37.314647654208244,-5.9448827780420155,37.314647654208244],"type":"Point","coordinates":[-5.9448827780420155,37.314647654208244]},"properties":{"id_dera":11010300001419,"codigo":616,"nombre":"ENTRENUCLEOS","tensi_m_kV":220,"nv_tens_kV":"220, 15","cod_mun":"41038","municipio":"Dos Hermanas","provincia":"Sevilla"}},{"type":"Feature","geometry":{"bbox":[-5.951966843842563,37.350168378547046,-5.951966843842563,37.350168378547046],"type":"Point","coordinates":[-5.951966843842563,37.350168378547046]},"properties":{"id_dera":11010300001427,"codigo":599,"nombre":"QUINTOS","tensi_m_kV":220,"nv_tens_kV":"220, 66, 15","cod_mun":"41091","municipio":"Sevilla","provincia":"Sevilla"}},{"type":"Feature","geometry":{"bbox":[-5.8435386572346175,37.24546259323247,-5.8435386572346175,37.24546259323247],"type":"Point","coordinates":[-5.8435386572346175,37.24546259323247]},"properties":{"id_dera":11010300001430,"codigo":602,"nombre":"DON RODRIGO","tensi_m_kV":400,"nv_tens_kV":"400, 220, 66, 30","cod_mun":"41004","municipio":"Alcalá de Guadaíra","provincia":"Sevilla"}},{"type":"Feature","geometry":{"bbox":[-5.9304920379408435,37.389766782690195,-5.9304920379408435,37.389766782690195],"type":"Point","coordinates":[-5.9304920379408435,37.389766782690195]},"properties":{"id_dera":11010300001432,"codigo":604,"nombre":"SANTA ELVIRA","tensi_m_kV":220,"nv_tens_kV":"220, 132, 66, 15","cod_mun":"41091","municipio":"Sevilla","provincia":"Sevilla"}},{"type":"Feature","geometry":{"bbox":[-6.012457383047629,37.39205479209248,-6.012457383047629,37.39205479209248],"type":"Point","coordinates":[-6.012457383047629,37.39205479209248]},"properties":{"id_dera":11010300001433,"codigo":605,"nombre":"CENTENARIO","tensi_m_kV":220,"nv_tens_kV":"220, 66, 20","cod_mun":"41091","municipio":"Sevilla","provincia":"Sevilla"}}]}