{"type":"FeatureCollection","features":[{"type":"Feature","id":"g13_01_TerminoMunicipal.11316400000752","geometry":{"type":"MultiPolygon","coordinates":[[[[-6.09255,37.34435],[-6.09308,37.34543],[-6.09246,37.34577],[-6.09242,37.34619],[-6.09321,37.34615],[-6.09336,37.34635],[-6.0935,37.34786],[-6.09437,37.3484],[-6.09462,37.34878],[-6.09459,37.3493],[-6.09495,37.34962],[-6.09457,37.35003],[-6.09508,37.3505],[-6.09511,37.35194],[-6.09453,37.35205],[-6.09463,37.3534],[-6.09441,37.354],[-6.09461,37.35513],[-6.0945,37.35599],[-6.09488,37.35627],[-6.0985,37.3565],[-6.09865,37.35682],[-6.1005,37.35719],[-6.10297,37.35708],[-6.10342,37.35727],[-6.11175,37.35584],[-6.1144,37.35509],[-6.11767,37.3549],[-6.11993,37.35524],[-6.12003,37.35707],[-6.11904,37.35698],[-6.11785,37.35742],[-6.11815,37.35878],[-6.11755,37.35895],[-6.11846,37.3626],[-6.11676,37.36265],[-6.11606,37.36291],[-6.1161,37.36445],[-6.1125,37.36465],[-6.11102,37.3645],[-6.11028,37.36539],[-6.10617,37.36526],[-6.10297,37.36639],[-6.09876,37.36649],[-6.09714,37.36676],[-6.09628,37.36715],[-6.09638,37.36806],[-6.09753,37.36876],[-6.09729,37.36938],[-6.09762,37.37039],[-6.0986,37.37056],[-6.09861,37.37117],[-6.09886,37.37152],[-6.09853,37.37192],[-6.09854,37.37239],[-6.09905,37.37276],[-6.09922,37.37376],[-6.10008,37.37382],[-6.10028,37.37425],[-6.09994,37.37485],[-6.10042,37.37528],[-6.09742,37.37677],[-6.09207,37.37821],[-6.09116,37.37806],[-6.09014,37.37715],[-6.08451,37.37598],[-6.08393,37.37605],[-6.08332,37.37565],[-6.08331,37.37615],[-6.0815,37.37698],[-6.07894,37.37686],[-6.07832,37.37703],[-6.07734,37.37764],[-6.07624,37.37904],[-6.07444,37.38018],[-6.07218,37.38134],[-6.06898,37.38253],[-6.06696,37.38384],[-6.06476,37.38473],[-6.06386,37.3836],[-6.06353,37.38273],[-6.06431,37.38182],[-6.06432,37.38131],[-6.06394,37.38081],[-6.06434,37.3805],[-6.06321,37.3795],[-6.06305,37.37754],[-6.06274,37.37664],[-6.06322,37.37634],[-6.06244,37.37455],[-6.06347,37.37352],[-6.06158,37.37131],[-6.06249,37.3702],[-6.06143,37.36865],[-6.06068,37.36811],[-6.0586,37.36292],[-6.06005,37.3615],[-6.06055,37.3595],[-6.05732,37.36009],[-6.05587,37.35796],[-6.06076,37.35606],[-6.06441,37.35358],[-6.06647,37.35395],[-6.0684,37.35365],[-6.0702,37.35155],[-6.07168,37.35121],[-6.07388,37.34941],[-6.08071,37.34813],[-6.08401,37.34898],[-6.08732,37.34702],[-6.08794,37.34642],[-6.09076,37.34494],[-6.09255,37.34435]]]]},"geometry_name":"geom","properties":{"id_dera":11316400000752,"cod_mun":"41017","nombre":"Bormujos","provincia":"Sevilla"}}]}